BLUEWALKER-3            
1 53807U 22111AL  26205.33812588  .00006150  00000+0  16857-3 0  9994
2 53807  53.2272 219.4999 0004844 305.1345  54.9206 15.38689191215926
SPACEMOBILE-003         
1 61045U 24163A   26205.54589248  .00001667  00000+0  89593-4 0  9999
2 61045  52.9691 137.6443 0003585 223.3637 136.7075 15.20666875103453
SPACEMOBILE-005         
1 61046U 24163B   26205.20082771  .00018580  00000+0  84903-3 0  9993
2 61046  52.9735 139.1924 0008082 222.5536 137.4832 15.20600133103397
SPACEMOBILE-001         
1 61047U 24163C   26205.19905241 -.00000212  00000+0  52172-5 0  9997
2 61047  52.9700 138.9039 0006559 220.2350 139.8159 15.20668192103397
SPACEMOBILE-002         
1 61048U 24163D   26205.51228327  .00022101  00000+0  10104-2 0  9993
2 61048  52.9782 137.5118 0004218 218.1890 141.8806 15.20490764103442
SPACEMOBILE-004         
1 61049U 24163E   26205.23126999  .00025866  00000+0  11742-2 0  9995
2 61049  52.9740 138.5752 0005285 260.6163  99.4233 15.20638649103406
SPACEMOBILE-006         
1 67232U 25309A   26205.29263828  .00003733  00000+0  19277-3 0  9998
2 67232  52.9950 161.6556 0009258 247.0863 112.9154 15.18701235 32232
SPACEMOBILE-008         
1 69589U 26139A   26205.13770182  .00000943  00000+0  69997-4 0  9991
2 69589  52.9952  94.8071 0005391  76.5282 283.6310 15.12820096  5572
SPACEMOBILE-009         
1 69590U 26139B   26205.07421027  .00001531  00000+0  10337-3 0  9994
2 69590  52.9946  95.1172 0005630  74.3539 285.8073 15.12720385  5569
SPACEMOBILE-010         
1 69591U 26139C   26205.60689376  .00001686  00000+0  11257-3 0  9990
2 69591  52.9949  92.7463 0005654  68.0283 292.1308 15.12559721  5657
